2023-104A               
1 57424U 23104A   26065.78279804  .00015492  00000+0  48200-3 0  9993
2 57424  97.2792 135.5625 0009333 122.1915 238.0234 15.33350758146346
STARLINK-35421          
1 66062U 25235E   26068.71762653  .00038951  00000+0  13206-2 0  9995
2 66062  53.1566 245.2899 0000651  92.7123 267.3952 15.30194608 22929
